NORAD_CAT_ID,OBJECT_NAME,OBJECT_TYPE,EPOCH,MEAN_MOTION,ECCENTRICITY,INCLINATION,RA_OF_ASC_NODE,ARG_OF_PERICENTER,MEAN_ANOMALY,BSTAR,MEAN_MOTION_DOT,MEAN_MOTION_DDOT,TLE_LINE0,TLE_LINE1,TLE_LINE2,SEMIMAJOR_AXIS,PERIOD,APOGEE,PERIGEE,DECAYED
55926.0,STARLINK-5921,PAYLOAD,2024-04-20 12:05:56,14.98298433,0.000231,70.0036,219.7413,204.1389,155.9662,-0.00052545,-6.351e-05,0.0,0 STARLINK-5921,1 55926U 23037N   24111.50412668 -.00006351  00000-0 -52545-3 0  9994,2 55926  70.0036 219.7413 0002310 204.1389 155.9662 14.98298433 61232,6950.291,96.109,573.761,570.55,0.0
55926.0,STARLINK-5921,PAYLOAD,2024-04-20 13:42:05,14.9829271,0.0002188,70.0045,219.5747,204.9285,155.1769,-0.00055121,-6.657e-05,0.0,0 STARLINK-5921,1 55926U 23037N   24111.57089229 -.00006657  00000-0 -55121-3 0  9996,2 55926  70.0045 219.5747 0002188 204.9285 155.1769 14.98292710 60901,6950.308,96.109,573.694,570.652,0.0
55926.0,STARLINK-5921,PAYLOAD,2024-04-20 16:54:21,14.9829733,0.0002104,70.0022,219.2348,246.8156,113.2782,-0.00054638,-6.6e-05,0.0,0 STARLINK-5921,1 55926U 23037N   24111.70441130 -.00006600  00000-0 -54638-3 0  9994,2 55926  70.0022 219.2348 0002104 246.8156 113.2782 14.98297330 60925,6950.294,96.109,573.621,570.697,0.0
55926.0,STARLINK-5921,PAYLOAD,2024-04-21 13:44:04,14.98322921,0.0001777,70.0033,217.0457,229.5579,130.5425,-5.3507e-05,-7.31e-06,0.0,0 STARLINK-5921,1 55926U 23037N   24112.57227047 -.00000731  00000-0 -53507-4 0  9993,2 55926  70.0033 217.0457 0001777 229.5579 130.5425 14.98322921 61052,6950.215,96.107,573.315,570.845,0.0
55926.0,STARLINK-5921,PAYLOAD,2024-04-21 16:56:19,14.9833052,0.0001959,70.0028,216.7108,242.6824,117.4135,2.6329e-05,2.21e-06,0.0,0 STARLINK-5921,1 55926U 23037N   24112.70578389  .00000221  00000-0  26329-4 0  9990,2 55926  70.0028 216.7108 0001959 242.6824 117.4135 14.98330520 61412,6950.191,96.107,573.418,570.695,0.0
55926.0,STARLINK-5921,PAYLOAD,2024-04-22 10:33:48,14.98334677,0.0002342,70.002,214.8572,257.3541,102.7356,-7.714e-05,-1.013e-05,0.0,0 STARLINK-5921,1 55926U 23037N   24113.44014249 -.00001013  00000-0 -77140-4 0  9991,2 55926  70.0020 214.8572 0002342 257.3541 102.7356 14.98334677 61187,6950.178,96.107,573.671,570.416,0.0
55926.0,STARLINK-5921,PAYLOAD,2024-04-22 16:58:20,14.98317465,0.0002641,70.0022,214.1817,274.0901,85.9957,0.00044154,5.178e-05,0.0,0 STARLINK-5921,1 55926U 23037N   24113.70718266  .00005178  00000-0  44154-3 0  9992,2 55926  70.0022 214.1817 0002641 274.0901  85.9957 14.98317465 61569,6950.232,96.108,573.932,570.261,0.0
55926.0,STARLINK-5921,PAYLOAD,2024-04-23 13:48:04,14.98376861,0.0002168,70.002,211.9958,247.0889,113.0041,-0.00063996,-7.729e-05,0.0,0 STARLINK-5921,1 55926U 23037N   24114.57505114 -.00007729  00000-0 -63996-3 0  9995,2 55926  70.0020 211.9958 0002168 247.0889 113.0041 14.98376861 61356,6950.048,96.104,573.42,570.406,0.0
55926.0,STARLINK-5921,PAYLOAD,2024-04-23 15:24:13,14.98335304,0.0002144,70.002,211.8262,256.6499,103.4421,0.0001737,1.98e-05,0.0,0 STARLINK-5921,1 55926U 23037N   24114.64181952  .00001980  00000-0  17370-3 0  9999,2 55926  70.0020 211.8262 0002144 256.6499 103.4421 14.98335304 61701,6950.176,96.107,573.532,570.551,0.0
55926.0,STARLINK-5921,PAYLOAD,2024-04-24 13:50:05,14.98336212,0.0002308,70.0022,209.4714,254.6238,105.4667,0.00012093,1.35e-05,0.0,0 STARLINK-5921,1 55926U 23037N   24115.57645659  .00001350  00000-0  12093-3 0  9999,2 55926  70.0022 209.4714 0002308 254.6238 105.4667 14.98336212 61500,6950.174,96.107,573.643,570.435,0.0
55926.0,STARLINK-5921,PAYLOAD,2024-04-24 15:26:13,14.98337134,0.0002277,70.0019,209.3029,254.2809,105.8098,0.00013846,1.56e-05,0.0,0 STARLINK-5921,1 55926U 23037N   24115.64321506  .00001560  00000-0  13846-3 0  9999,2 55926  70.0019 209.3029 0002277 254.2809 105.8098 14.98337134 61853,6950.171,96.107,573.618,570.453,0.0
55926.0,STARLINK-5921,PAYLOAD,2024-04-25 12:15:59,14.98328842,0.000283,70.0012,207.1146,259.4817,100.6023,-5.8946e-05,-7.96e-06,0.0,0 STARLINK-5921,1 55926U 23037N   24116.51110096 -.00000796  00000-0 -58946-4 0  9999,2 55926  70.0012 207.1146 0002830 259.4817 100.6023 14.98328842 61984,6950.196,96.107,574.028,570.095,0.0
55926.0,STARLINK-5921,PAYLOAD,2024-04-25 13:52:07,14.98329377,0.0002797,70.0015,206.9468,257.0348,103.0499,-4.1334e-05,-5.86e-06,0.0,0 STARLINK-5921,1 55926U 23037N   24116.57785990 -.00000586  00000-0 -41334-4 0  9996,2 55926  70.0015 206.9468 0002797 257.0348 103.0499 14.98329377 61658,6950.195,96.107,574.004,570.116,0.0
55926.0,STARLINK-5921,PAYLOAD,2024-04-25 15:28:15,14.98329492,0.0002788,70.0015,206.7786,256.6428,103.442,-3.8099e-05,-5.47e-06,0.0,0 STARLINK-5921,1 55926U 23037N   24116.64461972 -.00000547  00000-0 -38099-4 0  9996,2 55926  70.0015 206.7786 0002788 256.6428 103.4420 14.98329492 61660,6950.194,96.107,573.997,570.122,0.0
55926.0,STARLINK-5921,PAYLOAD,2024-04-26 05:53:27,14.98333331,0.0003138,70.0008,205.2638,269.1302,90.9497,1.3241e-05,6.5e-07,0.0,0 STARLINK-5921,1 55926U 23037N   24117.24545469  .00000065  00000-0  13241-4 0  9992,2 55926  70.0008 205.2638 0003138 269.1302  90.9497 14.98333331 62091,6950.183,96.107,574.229,569.867,0.0
55926.0,STARLINK-5921,PAYLOAD,2024-04-26 12:17:58,14.98340258,0.0003147,70.0003,204.5893,270.8161,89.2637,7.1878e-05,7.65e-06,0.0,0 STARLINK-5921,1 55926U 23037N   24117.51248826  .00000765  00000-0  71878-4 0  9996,2 55926  70.0003 204.5893 0003147 270.8161  89.2637 14.98340258 62131,6950.161,96.106,574.213,569.839,0.0
55926.0,STARLINK-5921,PAYLOAD,2024-04-26 13:54:06,14.98343122,0.0002824,70.0009,204.4205,269.1005,90.983,8.1711e-05,8.82e-06,0.0,0 STARLINK-5921,1 55926U 23037N   24117.57924547  .00000882  00000-0  81711-4 0  9990,2 55926  70.0009 204.4205 0002824 269.1005  90.9830 14.98343122 61802,6950.152,96.106,573.98,570.055,0.0
55926.0,STARLINK-5921,PAYLOAD,2024-04-26 15:30:14,14.9834608,0.0002939,70.0007,204.2524,270.5073,89.575,0.00013006,1.46e-05,0.0,0 STARLINK-5921,1 55926U 23037N   24117.64600137  .00001460  00000-0  13006-3 0  9998,2 55926  70.0007 204.2524 0002939 270.5073  89.5750 14.98346080 62150,6950.143,96.106,574.051,569.966,0.0
55926.0,STARLINK-5921,PAYLOAD,2024-04-27 12:19:59,14.98337616,0.0003058,70.0001,202.063,268.2627,91.8182,0.00018639,2.132e-05,0.0,0 STARLINK-5921,1 55926U 23037N   24118.51388376  .00002132  00000-0  18639-3 0  9997,2 55926  70.0001 202.0630 0003058 268.2627  91.8182 14.98337616 62284,6950.169,96.107,574.16,569.909,0.0
55926.0,STARLINK-5921,PAYLOAD,2024-04-27 13:56:07,14.98337612,0.0003073,70.0003,201.8948,268.5429,91.5378,0.00017499,1.996e-05,0.0,0 STARLINK-5921,1 55926U 23037N   24118.58064320  .00001996  00000-0  17499-3 0  9994,2 55926  70.0003 201.8948 0003073 268.5429  91.5378 14.98337612 61958,6950.169,96.107,574.17,569.899,0.0
55926.0,STARLINK-5921,PAYLOAD,2024-04-27 15:32:15,14.98339448,0.0003053,70.0005,201.7265,268.2704,91.8105,0.0001951,2.236e-05,0.0,0 STARLINK-5921,1 55926U 23037N   24118.64740136  .00002236  00000-0  19510-3 0  9991,2 55926  70.0005 201.7265 0003053 268.2704  91.8105 14.98339448 61963,6950.164,96.106,574.151,569.907,0.0
55926.0,STARLINK-5921,PAYLOAD,2024-04-28 12:22:02,14.98323116,0.0002803,70.0008,199.539,271.8675,88.2163,-0.00018783,-2.333e-05,0.0,0 STARLINK-5921,1 55926U 23037N   24119.51530360 -.00002333  00000-0 -18783-3 0  9995,2 55926  70.0008 199.5390 0002803 271.8675  88.2163 14.98323116 62430,6950.214,96.107,574.027,570.131,0.0
55926.0,STARLINK-5921,PAYLOAD,2024-04-28 13:58:10,14.9832251,0.0002824,70.0008,199.3706,272.13,87.9536,-0.0001852,-2.302e-05,0.0,0 STARLINK-5921,1 55926U 23037N   24119.58206418 -.00002302  00000-0 -18520-3 0  9991,2 55926  70.0008 199.3706 0002824 272.1300  87.9536 14.98322510 62102,6950.216,96.107,574.044,570.118,0.0
55926.0,STARLINK-5921,PAYLOAD,2024-04-28 21:58:50,14.98332624,0.0003077,69.9999,198.5292,269.7156,90.3651,-0.00016196,-2.025e-05,0.0,0 STARLINK-5921,1 55926U 23037N   24119.91585701 -.00002025  00000-0 -16196-3 0  9992,2 55926  69.9999 198.5292 0003077 269.7156  90.3651 14.98332624 62159,6950.185,96.107,574.188,569.911,0.0
55926.0,STARLINK-5921,PAYLOAD,2024-04-29 04:23:22,14.98326717,0.0003062,69.9998,197.855,271.2155,88.8653,-3.5896e-06,-1.36e-06,0.0,0 STARLINK-5921,1 55926U 23037N   24120.18289769 -.00000136  00000-0 -35896-5 0  9999,2 55926  69.9998 197.8550 0003062 271.2155  88.8653 14.98326717 62530,6950.203,96.107,574.196,569.94,0.0
55926.0,STARLINK-5921,PAYLOAD,2024-04-29 12:24:02,14.98334489,0.0003051,69.9997,197.0139,269.5812,90.4997,5.0292e-05,5.07e-06,0.0,0 STARLINK-5921,1 55926U 23037N   24120.51669153  .00000507  00000-0  50292-4 0  9991,2 55926  69.9997 197.0139 0003051 269.5812  90.4997 14.98334489 62582,6950.179,96.107,574.165,569.924,0.0
55926.0,STARLINK-5921,PAYLOAD,2024-04-29 14:00:10,14.98337892,0.0003035,69.9998,196.8458,269.4358,90.6453,4.5662e-05,4.52e-06,0.0,0 STARLINK-5921,1 55926U 23037N   24120.58344921  .00000452  00000-0  45662-4 0  9995,2 55926  69.9998 196.8458 0003035 269.4358  90.6453 14.98337892 62254,6950.168,96.106,574.143,569.924,0.0
55926.0,STARLINK-5921,PAYLOAD,2024-04-29 22:00:50,14.98338417,0.0003046,69.9999,196.0042,269.8955,90.1855,-1.5326e-05,-2.76e-06,0.0,0 STARLINK-5921,1 55926U 23037N   24120.91724916 -.00000276  00000-0 -15326-4 0  9998,2 55926  69.9999 196.0042 0003046 269.8955  90.1855 14.98338417 62306,6950.167,96.106,574.149,569.915,0.0
55926.0,STARLINK-5921,PAYLOAD,2024-04-30 12:26:03,14.98327701,0.0002932,70.0,194.4896,270.192,89.8903,0.00020595,2.365e-05,0.0,0 STARLINK-5921,1 55926U 23037N   24121.51809328  .00002365  00000-0  20595-3 0  9998,2 55926  70.0000 194.4896 0002932 270.1920  89.8903 14.98327701 62731,6950.2,96.107,574.103,570.027,0.0
55926.0,STARLINK-5921,PAYLOAD,2024-04-30 14:02:11,14.98328486,0.0002927,70.0,194.3213,270.3887,89.6936,0.00021267,2.445e-05,0.0,0 STARLINK-5921,1 55926U 23037N   24121.58485289  .00002445  00000-0  21267-3 0  9997,2 55926  70.0000 194.3213 0002927 270.3887  89.6936 14.98328486 62400,6950.198,96.107,574.097,570.028,0.0
